{"type": "FeatureCollection", "features": [ {"type": "Feature", "properties": {"norad_id": 34609, "name": "COSMOS 2251 DEB", "group": "cosmos-2251-debris", "lat": -59.28393275323581, "lon": 83.24137599128304, "alt_km": 741.4252605170741, "timestamp": "2025-12-09T11:33:55.195875+00:00", "meta": {"OBJECT_NAME": "COSMOS 2251 DEB", "OBJECT_ID": "1993-036WE", "EPOCH": "2025-12-08T19:41:00.148704", "MEAN_MOTION": 14.2177271, "ECCENTRICITY": 0.01448905, "INCLINATION": 73.733, "RA_OF_ASC_NODE": 113.8855, "ARG_OF_PERICENTER": 333.9898, "MEAN_ANOMALY": 177.6807, "EPHEMERIS_TYPE": 0, "CLASSIFICATION_TYPE": "U", "NORAD_CAT_ID": 34609, "ELEMENT_SET_NO": 999, "REV_AT_EPOCH": 86576, "BSTAR": 0.0013090611, "MEAN_MOTION_DOT": 3.177e-05, "MEAN_MOTION_DDOT": 0}, "tle": {"line1": "1 34609U 93036WE  25342.82014061  .00003177  00000+0  13091-2 0  9994", "line2": "2 34609  73.7330 113.8855 0144890 333.9898 177.6807 14.21772710865767"}}, "geometry": {"type": "Point", "coordinates": [83.24137599128304, -59.28393275323581]}}, {"type": "Feature", "properties": {"norad_id": 34610, "name": "COSMOS 2251 DEB", "group": "cosmos-2251-debris", "lat": -73.48127520518744, "lon": -167.02451269225276, "alt_km": 950.1545688565411, "timestamp": "2025-12-09T11:33:55.195885+00:00", "meta": {"OBJECT_NAME": "COSMOS 2251 DEB", "OBJECT_ID": "1993-036WF", "EPOCH": "2025-12-08T20:36:47.149056", "MEAN_MOTION": 14.07013435, "ECCENTRICITY": 0.01802466, "INCLINATION": 74.0204, "RA_OF_ASC_NODE": 269.1248, "ARG_OF_PERICENTER": 40.5884, "MEAN_ANOMALY": 320.853, "EPHEMERIS_TYPE": 0, "CLASSIFICATION_TYPE": "U", "NORAD_CAT_ID": 34610, "ELEMENT_SET_NO": 999, "REV_AT_EPOCH": 85505, "BSTAR": 0.0033348409, "MEAN_MOTION_DOT": 6.437e-05, "MEAN_MOTION_DDOT": 0}, "tle": {"line1": "1 34610U 93036WF  25342.85887904  .00006437  00000+0  33348-2 0  9992", "line2": "2 34610  74.0204 269.1248 0180246  40.5884 320.8530 14.07013435855057"}}, "geometry": {"type": "Point", "coordinates": [-167.02451269225276, -73.48127520518744]}}, {"type": "Feature", "properties": {"norad_id": 34611, "name": "COSMOS 2251 DEB", "group": "cosmos-2251-debris", "lat": -38.86676093866123, "lon": 93.94843533014823, "alt_km": 685.1280357817104, "timestamp": "2025-12-09T11:33:55.195895+00:00", "meta": {"OBJECT_NAME": "COSMOS 2251 DEB", "OBJECT_ID": "1993-036WG", "EPOCH": "2025-12-08T11:33:31.679424", "MEAN_MOTION": 14.69373356, "ECCENTRICITY": 0.00231754, "INCLINATION": 74.0536, "RA_OF_ASC_NODE": 109.2058, "ARG_OF_PERICENTER": 152.3424, "MEAN_ANOMALY": 277.9243, "EPHEMERIS_TYPE": 0, "CLASSIFICATION_TYPE": "U", "NORAD_CAT_ID": 34611, "ELEMENT_SET_NO": 999, "REV_AT_EPOCH": 88328, "BSTAR": 0.0022807542, "MEAN_MOTION_DOT": 0.00013536, "MEAN_MOTION_DDOT": 0}, "tle": {"line1": "1 34611U 93036WG  25342.48161666  .00013536  00000+0  22808-2 0  9999", "line2": "2 34611  74.0536 109.2058 0023175 152.3424 277.9243 14.69373356883286"}}, "geometry": {"type": "Point", "coordinates": [93.94843533014823, -38.86676093866123]}}, {"type": "Feature", "properties": {"norad_id": 34613, "name": "COSMOS 2251 DEB", "group": "cosmos-2251-debris", "lat": -11.349168439319318, "lon": 107.77877024694384, "alt_km": 785.8010999084136, "timestamp": "2025-12-09T11:33:55.195905+00:00", "meta": {"OBJECT_NAME": "COSMOS 2251 DEB", "OBJECT_ID": "1993-036WJ", "EPOCH": "2025-12-08T06:46:17.263200", "MEAN_MOTION": 14.26392595, "ECCENTRICITY": 0.01101087, "INCLINATION": 73.9641, "RA_OF_ASC_NODE": 286.6469, "ARG_OF_PERICENTER": 119.6298, "MEAN_ANOMALY": 32.5714, "EPHEMERIS_TYPE": 0, "CLASSIFICATION_TYPE": "U", "NORAD_CAT_ID": 34613, "ELEMENT_SET_NO": 999, "REV_AT_EPOCH": 86399, "BSTAR": 0.0018958544, "MEAN_MOTION_DOT": 4.838e-05, "MEAN_MOTION_DDOT": 0}, "tle": {"line1": "1 34613U 93036WJ  25342.28214425  .00004838  00000+0  18959-2 0  9998", "line2": "2 34613  73.9641 286.6469 0110108 119.6298  32.5714 14.26392595863990"}}, "geometry": {"type": "Point", "coordinates": [107.77877024694384, -11.349168439319318]}}, {"type": "Feature", "properties": {"norad_id": 34614, "name": "COSMOS 2251 DEB", "group": "cosmos-2251-debris", "lat": -27.45028831599038, "lon": 178.38709977472163, "alt_km": 939.6298005203307, "timestamp": "2025-12-09T11:33:55.195915+00:00", "meta": {"OBJECT_NAME": "COSMOS 2251 DEB", "OBJECT_ID": "1993-036WK", "EPOCH": "2025-12-08T00:50:06.573984", "MEAN_MOTION": 14.17293414, "ECCENTRICITY": 0.01972668, "INCLINATION": 73.8753, "RA_OF_ASC_NODE": 352.3472, "ARG_OF_PERICENTER": 346.8696, "MEAN_ANOMALY": 42.634, "EPHEMERIS_TYPE": 0, "CLASSIFICATION_TYPE": "U", "NORAD_CAT_ID": 34614, "ELEMENT_SET_NO": 999, "REV_AT_EPOCH": 84700, "BSTAR": 0.007090469, "MEAN_MOTION_DOT": 0.00017361, "MEAN_MOTION_DDOT": 0}, "tle": {"line1": "1 34614U 93036WK  25342.03479831  .00017361  00000+0  70905-2 0  9990", "line2": "2 34614  73.8753 352.3472 0197266 346.8696  42.6340 14.17293414847006"}}, "geometry": {"type": "Point", "coordinates": [178.38709977472163, -27.45028831599038]}}, {"type": "Feature", "properties": {"norad_id": 34615, "name": "COSMOS 2251 DEB", "group": "cosmos-2251-debris", "lat": 34.51440724429447, "lon": 107.99172060602349, "alt_km": 918.6273709060542, "timestamp": "2025-12-09T11:33:55.195925+00:00", "meta": {"OBJECT_NAME": "COSMOS 2251 DEB", "OBJECT_ID": "1993-036WL", "EPOCH": "2025-12-08T20:46:10.769088", "MEAN_MOTION": 13.52200861, "ECCENTRICITY": 0.04016024, "INCLINATION": 74.005, "RA_OF_ASC_NODE": 300.3553, "ARG_OF_PERICENTER": 208.401, "MEAN_ANOMALY": 179.5639, "EPHEMERIS_TYPE": 0, "CLASSIFICATION_TYPE": "U", "NORAD_CAT_ID": 34615, "ELEMENT_SET_NO": 999, "REV_AT_EPOCH": 82763, "BSTAR": 0.00025814376, "MEAN_MOTION_DOT": 2.6e-06, "MEAN_MOTION_DDOT": 0}, "tle": {"line1": "1 34615U 93036WL  25342.86540242  .00000260  00000+0  25814-3 0  9997", "line2": "2 34615  74.0050 300.3553 0401602 208.4010 179.5639 13.52200861827638"}}, "geometry": {"type": "Point", "coordinates": [107.99172060602349, 34.51440724429447]}}, {"type": "Feature", "properties": {"norad_id": 34619, "name": "COSMOS 2251 DEB", "group": "cosmos-2251-debris", "lat": 2.1611994323119674, "lon": 25.58128165548164, "alt_km": 717.712506837639, "timestamp": "2025-12-09T11:33:55.195935+00:00", "meta": {"OBJECT_NAME": "COSMOS 2251 DEB", "OBJECT_ID": "1993-036WQ", "EPOCH": "2025-12-09T00:54:46.223136", "MEAN_MOTION": 14.64630869, "ECCENTRICITY": 0.0094659, "INCLINATION": 74.0441, "RA_OF_ASC_NODE": 207.0525, "ARG_OF_PERICENTER": 302.7837, "MEAN_ANOMALY": 56.4237, "EPHEMERIS_TYPE": 0, "CLASSIFICATION_TYPE": "U", "NORAD_CAT_ID": 34619, "ELEMENT_SET_NO": 999, "REV_AT_EPOCH": 89244, "BSTAR": 0.00029433, "MEAN_MOTION_DOT": 1.636e-05, "MEAN_MOTION_DDOT": 0}, "tle": {"line1": "1 34619U 93036WQ  25343.03803499  .00001636  00000+0  29433-3 0  9996", "line2": "2 34619  74.0441 207.0525 0094659 302.7837  56.4237 14.64630869892440"}}, "geometry": {"type": "Point", "coordinates": [25.58128165548164, 2.1611994323119674]}}, {"type": "Feature", "properties": {"norad_id": 34620, "name": "COSMOS 2251 DEB", "group": "cosmos-2251-debris", "lat": -55.195560787925274, "lon": 69.92822832695644, "alt_km": 682.8920493772384, "timestamp": "2025-12-09T11:33:55.195946+00:00", "meta": {"OBJECT_NAME": "COSMOS 2251 DEB", "OBJECT_ID": "1993-036WR", "EPOCH": "2025-12-09T02:10:36.551712", "MEAN_MOTION": 14.49004692, "ECCENTRICITY": 0.0081136, "INCLINATION": 74.0507, "RA_OF_ASC_NODE": 226.3682, "ARG_OF_PERICENTER": 263.6404, "MEAN_ANOMALY": 95.5511, "EPHEMERIS_TYPE": 0, "CLASSIFICATION_TYPE": "U", "NORAD_CAT_ID": 34620, "ELEMENT_SET_NO": 999, "REV_AT_EPOCH": 86774, "BSTAR": 0.0026048, "MEAN_MOTION_DOT": 0.00010287, "MEAN_MOTION_DDOT": 0}, "tle": {"line1": "1 34620U 93036WR  25343.09070083  .00010287  00000+0  26048-2 0  9999", "line2": "2 34620  74.0507 226.3682 0081136 263.6404  95.5511 14.49004692867740"}}, "geometry": {"type": "Point", "coordinates": [69.92822832695644, -55.195560787925274]}}, {"type": "Feature", "properties": {"norad_id": 34622, "name": "COSMOS 2251 DEB", "group": "cosmos-2251-debris", "lat": -13.028805183959825, "lon": 136.6535772465609, "alt_km": 891.6896674582504, "timestamp": "2025-12-09T11:33:55.195955+00:00", "meta": {"OBJECT_NAME": "COSMOS 2251 DEB", "OBJECT_ID": "1993-036WT", "EPOCH": "2025-12-08T16:55:13.351296", "MEAN_MOTION": 14.22019914, "ECCENTRICITY": 0.01041794, "INCLINATION": 74.043, "RA_OF_ASC_NODE": 314.2506, "ARG_OF_PERICENTER": 37.7275, "MEAN_ANOMALY": 139.8016, "EPHEMERIS_TYPE": 0, "CLASSIFICATION_TYPE": "U", "NORAD_CAT_ID": 34622, "ELEMENT_SET_NO": 999, "REV_AT_EPOCH": 86402, "BSTAR": 0.0018808383, "MEAN_MOTION_DOT": 4.371e-05, "MEAN_MOTION_DDOT": 0}, "tle": {"line1": "1 34622U 93036WT  25342.70501564  .00004371  00000+0  18808-2 0  9993", "line2": "2 34622  74.0430 314.2506 0104179  37.7275 139.8016 14.22019914864022"}}, "geometry": {"type": "Point", "coordinates": [136.6535772465609, -13.028805183959825]}}, {"type": "Feature", "properties": {"norad_id": 34626, "name": "COSMOS 2251 DEB", "group": "cosmos-2251-debris", "lat": 28.083029532975026, "lon": 141.44964302049053, "alt_km": 653.0369822009052, "timestamp": "2025-12-09T11:33:55.195965+00:00", "meta": {"OBJECT_NAME": "COSMOS 2251 DEB", "OBJECT_ID": "1993-036WX", "EPOCH": "2025-12-09T03:05:40.002144", "MEAN_MOTION": 14.7212407, "ECCENTRICITY": 0.0026387, "INCLINATION": 74.0486, "RA_OF_ASC_NODE": 330.9137, "ARG_OF_PERICENTER": 60.2349, "MEAN_ANOMALY": 20.2949, "EPHEMERIS_TYPE": 0, "CLASSIFICATION_TYPE": "U", "NORAD_CAT_ID": 34626, "ELEMENT_SET_NO": 999, "REV_AT_EPOCH": 89091, "BSTAR": 0.001217, "MEAN_MOTION_DOT": 7.68e-05, "MEAN_MOTION_DDOT": 0}, "tle": {"line1": "1 34626U 93036WX  25343.12893521  .00007680  00000+0  12170-2 0  9993", "line2": "2 34626  74.0486 330.9137 0026387  60.2349  20.2949 14.72124070890919"}}, "geometry": {"type": "Point", "coordinates": [141.44964302049053, 28.083029532975026]}}]}